#aV2007  2 19  0  0   .00000000      96 DD+AD WGS84 FIT  NGA
## 1415  86400.00000000   900.00000000 54150  .0000000000000
+   30     1  2  3  4  5  6  7  8  9 10 11 12 13 14 16 17 18
+         19 20 21 22 23 24 25 26 27 28 29 30 31  0  0  0  0
+          0  0  0  0  0  0  0  0  0  0  0  0  0  0  0  0  0
+          0  0  0  0  0  0  0  0  0  0  0  0  0  0  0  0  0
+          0  0  0  0  0  0  0  0  0  0  0  0  0  0  0  0  0
++         0  0  0  0  0  0  0  0  0  0  0  0  0  0  0  0  0
++         0  0  0  0  0  0  0  0  0  0  0  0  0  0  0  0  0
++         0  0  0  0  0  0  0  0  0  0  0  0  0  0  0  0  0
++         0  0  0  0  0  0  0  0  0  0  0  0  0  0  0  0  0
++         0  0  0  0  0  0  0  0  0  0  0  0  0  0  0  0  0
%c cc cc ccc ccc cccc cccc cccc cccc ccccc ccccc ccccc ccccc
%c cc cc ccc ccc cccc cccc cccc cccc ccccc ccccc ccccc ccccc
%f  0.0000000  0.000000000  0.00000000000  0.000000000000000
%f  0.0000000  0.000000000  0.00000000000  0.000000000000000
%i    0    0    0    0      0      0      0      0         0
%i    0    0    0    0      0      0      0      0         0
/*      NGA, ST. LOUIS,MO.                                  
/*   EPHEMERIS COMPUTED FROM  3 DAYS OF DATA                
/* CCCCCCCCCCCCCCCCCCCCCCCCCCCCCCCCCCCCCCCCCCCCCCCCCCCCCCCCC
/* CCCCCCCCCCCCCCCCCCCCCCCCCCCCCCCCCCCCCCCCCCCCCCCCCCCCCCCCC
*  2007  2 19 14  0   .00000000                                                 
P  1  18110.484134  14277.808470  13437.773236    108.774914                    
V  1 -16402.268965  -3164.564613  25811.748054       .024430                    
P  2 -13985.642127 -20419.167292 -10218.670155     83.720194                    
V  2  -1198.417465 -12790.614769  27580.883189       .033184                    
P  3  21592.087531  11317.551051 -11131.047527     16.215623                    
V  3 -14071.541123   1185.232483 -26249.404455       .058647                    
P  4  -5325.306929 -25668.754585   2718.942980      4.632254                    
V  4   4419.776845   2450.786494  31412.482277       .018677                    
P  5 -20404.544775  10729.564160  12830.662885     37.666335                    
V  5   8061.135833 -14998.488192  25064.904940       .052456                    
P  6 -19525.612825   8164.415244 -15890.313506     38.938800                    
V  6 -19726.279984  -6369.352298  20671.990521       .256141                    
P  7 -16293.837579  10573.330901 -17813.571109    410.514624                    
V  7 -22692.575803  -5871.391708  16869.979784      -.125289                    
P  8   2481.757416 -23353.015807 -12088.355162    -97.279153                    
V  8   5930.914661  14279.153777 -27046.481027      -.013512                    
P  9 -16183.521692  -4032.694454  20146.053376     58.259101                    
V  9  -7871.188599 -25666.388803 -10917.348849       .016335                    
P 10 -12727.582963  -8405.763255 -21872.016731     97.712847                    
V 10  19167.996129 -19666.049700  -3295.730809       .005525                    
P 11  17738.031446    171.577434  19726.095240      7.722255                    
V 11  10061.060725  23480.886435  -8912.362956       .012742                    
P 12 -21017.090621   8021.080335  14194.700269    -49.543457                    
V 12  10624.027619 -14508.874190  24153.994729       .031234                    
P 13  16680.148784  -8325.146979 -18991.280322    145.196072                    
V 13  22808.103189   7062.620940  17064.598457       .039794                    
P 14   2286.083929  15311.804515  21676.334358      8.783608                    
V 14 -26504.369414  -6276.826527   7192.174689       .013873                    
P 16   7205.346217  13906.159550 -21349.480726    123.777567                    
V 16 -19360.170642  19281.863887   6130.992761       .035814                    
P 17  -1529.737093 -15735.598472  21357.339269     78.180611                    
V 17  26481.318259   5801.294796   6052.615573      -.014063                    
P 18 -16635.010692  20142.371450   3845.959595   -253.622053                    
V 18  -5666.141233   1036.730029 -31323.394197       .002037                    
P 19  25379.639843   7994.134498   -482.172076      6.544026                    
V 19  -1510.490125   2503.858027 -31615.814407       .040943                    
P 20  21136.621463 -10024.489683  12436.037707    -22.451289                    
V 20  -8918.517776  13498.945669  25880.750930      -.001787                    
P 21  -7669.175475  18762.992020 -16767.183415     71.666424                    
V 21  -8046.037228 -20380.172280 -19571.287610       .009416                    
P 22  -7547.470522  21281.120998  14126.765275    168.253790                    
V 22 -14335.790562  10641.452272 -23972.450433       .020482                    
P 23  24425.808534  -1764.934372 -10599.816243    150.711952                    
V 23  12453.014584   4998.900624  27886.685038       .017081                    
P 24 -15079.021343   2362.635926 -21558.588528     78.681936                    
V 24  -6400.253570 -27070.553757   1789.826527       .031076                    
P 25  15290.725300  19076.261480  -9829.814114    338.345657                    
V 25   2365.917802  13182.475434  28289.491315      -.177279                    
P 26 -25223.498800  -8873.092573  -3131.021190    -50.944757                    
V 26   3599.036377   -372.368758 -31733.300120      -.186320                    
P 27   7080.523641 -17268.118799 -18153.724379     95.006145                    
V 27  10201.987666  22317.148011 -16924.335668       .021142                    
P 28  10397.635699 -21713.349625  11132.868692      7.013538                    
V 28  11490.762654  -8034.156583 -27533.144483      -.009014                    
P 29 -23808.695170 -10017.093082  -6714.847942    353.001146                    
V 29   8852.753741    398.000593 -30619.026953       .091191                    
P 30 -19256.995136  17674.916675   4053.235574     25.837102                    
V 30   1108.215282  -6389.945814  30934.513712       .010586                    
P 31   7239.886595  25513.442240    842.129160      9.621037                    
V 31  -2985.697529     51.499884  31768.067313       .034759                    
EOF
